INTELSAT 11 (IS-11)     
1 32253C 07044B   22237.00000000 -.00000178  00000-0  00000-0 0  2378
2 32253   0.0062 110.1039 0001639  64.0333 116.1193  1.00272743    17
INTELSAT 11 (IS-11) [PM]
1 32253C 07044B   22240.46516204 -.00002907  00000-0  00000-0 0  2406
2 32253   0.0125 211.9060 0001689 322.8393 286.3912  1.00270577    19
HORIZONS-2              
1 32388C 07063B   22233.93069444  .00000010  00000-0  00000-0 0  2333
2 32388   0.0134  80.9003 0003353  23.7335 191.7196  0.99715300    10
HORIZONS-2              
1 32388C 07063B   22237.00000000 -.00000036  00000-0  00000-0 0  2371
2 32388   0.0183  93.8209 0003182  11.8230 212.5300  0.99714732    14
HORIZONS-2          [PM]
1 32388C 07063B   22239.41666667 -.00003034  00000-0  00000-0 0  2398
2 32388   0.0034 193.3276 0003174 269.5628   2.8041  0.99714279    11
GALAXY 18 (G-18)        
1 32951C 08024A   22233.93069444  .00000092  00000-0  00000-0 0  2337
2 32951   0.0061 196.1664 0002976 323.9404  22.1616  1.00270885    11
GALAXY 18 (G-18)        
1 32951C 08024A   22237.00000000  .00000115  00000-0  00000-0 0  2372
2 32951   0.0018 163.5078 0002925   1.8978  44.8394  1.00271581    10
GALAXY 18 (G-18)    [PM]
1 32951C 08024A   22239.55763889  .00000111  00000-0  00000-0 0  2393
2 32951   0.0021 161.9675 0002980   3.6759 247.8782  1.00270791    15
INTELSAT 25 (IS-25)     
1 33153C 08034A   22233.93069444 -.00000134  00000-0  00000-0 0  2331
2 33153   0.0158 123.7569 0003051  39.5449 110.4536  1.00272846    18
INTELSAT 25 (IS-25)     
1 33153C 08034A   22237.00000000 -.00000128  00000-0  00000-0 0  2373
2 33153   0.0116 157.7867 0003054  10.5628 133.3908  1.00271582    14
INTELSAT 25 (IS-25) [PM]
1 33153C 08034A   22238.00694444 -.00003481  00000-0  00000-0 0  2381
2 33153   0.0122 152.6534 0003263  16.5996 135.9708  1.00272142    11
GALAXY 19 (G-19)        
1 33376C 08045A   22233.93069444 -.00000050  00000-0  00000-0 0  2337
2 33376   0.0465 281.6068 0002836 243.4598  43.1926  1.00271724    14
GALAXY 19 (G-19)        
1 33376C 08045A   22237.00000000 -.00000046  00000-0  00000-0 0  2371
2 33376   0.0582 282.9111 0002877 245.8293  67.4878  1.00269957    10
GALAXY 19 (G-19)    [PM]
1 33376C 08045A   22237.52418982 -.00003545  00000-0  00000-0 0  2377
2 33376   0.0582 281.4695 0002799 229.3967 274.5974  1.00272594    18
INTELSAT 14 (IS-14)     
1 36097C 09064A   22233.93069444 -.00004481  00000-0  00000-0 0  2334
2 36097   0.0372 284.1448 0002390 242.3637  93.7522  1.00272288    10
INTELSAT 14 (IS-14)     
1 36097C 09064A   22237.00000000 -.00003999  00000-0  00000-0 0  2376
2 36097   0.0028 168.7808 0002338 356.8038 122.6539  1.00273843    11
INTELSAT 14 (IS-14) [PM]
1 36097C 09064A   22241.45528935 -.00003631  00000-0  00000-0 0  2410
2 36097   0.0311 256.9927 0002557 264.6266 294.9404  1.00268283    16
INTELSAT 15 (IS-15)     
1 36106C 09067A   22233.93069444 -.00000095  00000-0  00000-0 0  2335
2 36106   0.0187  77.0948 0002168  81.2253 232.0946  1.00271778    17
INTELSAT 15 (IS-15)     
1 36106C 09067A   22237.00000000 -.00000087  00000-0  00000-0 0  2375
2 36106   0.0003  49.5173 0002144 114.2983 254.5716  1.00270450    19
INTELSAT 15 (IS-15) [PM]
1 36106C 09067A   22237.50238426 -.00000098  00000-0  00000-0 0  2377
2 36106   0.0382 303.6042 0002066 214.8078  81.3271  1.00272693    16
INTELSAT 16 (IS-16)     
1 36397C 10006A   22233.93069444 -.00000155  00000-0  00000-0 0  2339
2 36397   0.0170  82.3497 0001992  79.6725  67.0473  1.00272682    14
INTELSAT 16 (IS-16)     
1 36397C 10006A   22237.00000000 -.00000196  00000-0  00000-0 0  2373
2 36397   0.0371 291.2091 0001926 230.8767  94.9548  1.00273038    10
INTELSAT 16 (IS-16) [PM]
1 36397C 10006A   22243.92479167 -.00000155  00000-0  00000-0 0  2437
2 36397   0.0024  91.0280 0002184  61.8698  83.8944  1.00273533    10
INTELSAT 17 (IS-17)     
1 37238C 10065B   22233.93069444  .00000082  00000-0  00000-0 0  2337
2 37238   0.0364 230.4156 0002459 288.9288 211.9094  1.00272698    16
INTELSAT 17 (IS-17)     
1 37238C 10065B   22237.00000000  .00000089  00000-0  00000-0 0  2373
2 37238   0.0292 194.2323 0002510 332.6420 232.3622  1.00271116    10
INTELSAT 17 (IS-17) [PM]
1 37238C 10065B   22237.15759259  .00000081  00000-0  00000-0 0  2378
2 37238   0.0401 223.6052 0002497 302.8917 289.6286  1.00270398    14
INTELSAT NEW DAWN       
1 37392C 11016A   22233.93069444  .00000246  00000-0  00000-0 0  2337
2 37392   0.0126 163.1525 0000923 329.8028 205.1188  1.00270426    12
INTELSAT NEW DAWN   [PM]
1 37392C 11016A   22234.35062500  .00000250  00000-0  00000-0 0  2346
2 37392   0.0127 159.9018 0000856 334.0030 355.7583  1.00270524    19
INTELSAT NEW DAWN       
1 37392C 11016A   22237.00000000  .00000246  00000-0  00000-0 0  2376
2 37392   0.0151 150.3568 0000820 354.7744 220.9157  1.00271376    19
INTELSAT 18 (IS-18)     
1 37834C 11056A   22233.93069444  .00000136  00000-0  00000-0 0  2330
2 37834   0.0307 350.8223 0002187 171.0489 323.3875  1.00270768    11
INTELSAT 18 (IS-18)     
1 37834C 11056A   22237.00000000 -.00003987  00000-0  00000-0 0  2377
2 37834   0.0225  26.6328 0002087 138.7438 347.8555  1.00271838    12
INTELSAT 18 (IS-18) [PM]
1 37834C 11056A   22240.84202546  .00000223  00000-0  00000-0 0  2405
2 37834   0.0206  25.3470 0002216 134.5723 300.2440  1.00269855    12
INTELSAT 22 (IS-22)     
1 38098C 12011A   22233.93069444  .00000032  00000-0  00000-0 0  2330
2 38098   0.0192 101.4549 0002768  65.4083 210.4884  1.00271636    19
INTELSAT 22 (IS-22)     
1 38098C 12011A   22237.00000000 -.00000005  00000-0  00000-0 0  2370
2 38098   0.0301 241.0262 0002701 288.6305 235.6825  1.00271952    12
INTELSAT 22 (IS-22) [PM]
1 38098C 12011A   22237.51524306 -.00000016  00000-0  00000-0 0  2378
2 38098   0.0270 231.8845 0002634 296.9944  62.4574  1.00272114    15
INTELSAT 19 (IS-19)     
1 38356C 12030A   22233.93069444  .00000022  00000-0  00000-0 0  2337
2 38356   0.0022 105.1163 0003024  55.7179 310.4233  1.00272188    17
INTELSAT 19 (IS-19)     
1 38356C 12030A   22237.00000000  .00000034  00000-0  00000-0 0  2379
2 38356   0.0089 115.0181 0002970  49.6804 334.5470  1.00272094    12
INTELSAT 19 (IS-19) [PM]
1 38356C 12030A   22239.71734954  .00000031  00000-0  00000-0 0  2390
2 38356   0.0081 191.4689 0002856 316.2015 252.5076  1.00270954    19
INTELSAT 20 (IS-20)     
1 38740C 12043A   22234.00000000  .00000066  00000-0  00000-0 0  2349
2 38740   0.0119 135.1153 0001493  60.5435 203.1160  1.00271552    11
INTELSAT 20 (IS-20) [PM]
1 38740C 12043A   22236.22814815  .00000066  00000-0  00000-0 0  2364
2 38740   0.0124 127.4490 0001589  59.0899 296.5593  1.00272732    15
INTELSAT 20 (IS-20)     
1 38740C 12043A   22237.00000000  .00000066  00000-0  00000-0 0  2375
2 38740   0.0158 138.1305 0001555  60.3182 203.2796  1.00270504    14
INTELSAT 21 (IS-21)     
1 38749C 12045A   22233.93069444 -.00003757  00000-0  00000-0 0  2338
2 38749   0.0027 162.9774 0002183   3.7244  80.5598  1.00271927    17
INTELSAT 21 (IS-21) [PM]
1 38749C 12045A   22236.86438657 -.00000195  00000-0  00000-0 0  2365
2 38749   0.0059 110.4424 0002070  55.4973  60.3398  1.00273654    13
INTELSAT 21 (IS-21)     
1 38749C 12045A   22237.00000000 -.00000195  00000-0  00000-0 0  2370
2 38749   0.0064 110.8080 0002081  54.8889 109.5384  1.00273583    14
INTELSAT 23 (IS-23)     
1 38867C 12057A   22233.93069444 -.00000192  00000-0  00000-0 0  2332
2 38867   0.0052 130.4216 0000406 203.8051 278.0654  1.00267890    13
INTELSAT 23 (IS-23)     
1 38867C 12057A   22237.00000000 -.00000318  00000-0  00000-0 0  2371
2 38867   0.0159 191.5085 0000458 168.6397 280.0665  1.00286054    19
INTELSAT 23 (IS-23) [PM]
1 38867C 12057A   22238.49119213 -.00003651  00000-0  00000-0 0  2386
2 38867   0.0159 194.2590 0001050 164.6829  99.6013  1.00273478    12
INTELSAT 30 (IS-30)     
1 40271C 14062A   22234.00000000 -.00003883  00000-0  00000-0 0  2345
2 40271   0.0355 284.1854 0001725 152.1803 158.8645  1.00270943    10
INTELSAT 30 (IS-30) [PM]
1 40271C 14062A   22236.34982639 -.00003281  00000-0  00000-0 0  2365
2 40271   0.0001 155.1872 0001690 269.7526 298.5410  1.00273013    16
INTELSAT 30 (IS-30)     
1 40271C 14062A   22237.00000000 -.00003489  00000-0  00000-0 0  2373
2 40271   0.0000 153.2656 0001625 284.1918 160.7297  1.00271246    17
INTELSAT 34 (IS-34)     
1 40874C 15039A   22234.00000000 -.00003843  00000-0  00000-0 0  2345
2 40874   0.0088 344.4795 0000528  29.2928 261.0231  1.00270494    17
INTELSAT 34 (IS-34)     
1 40874C 15039A   22237.00000000 -.00000225  00000-0  00000-0 0  2372
2 40874   0.0100 222.6569 0000631 146.9995 268.0880  1.00269150    18
INTELSAT 34 (IS-34) [PM]
1 40874C 15039A   22237.28434028 -.00000212  00000-0  00000-0 0  2379
2 40874   0.0009 213.8823 0000598 153.2152  13.2837  1.00274057    13
INTELSAT 31 (IS-31)     
1 41581C 16035A   22234.00000000 -.00000061  00000-0  00000-0 0  2347
2 41581   0.0118 172.5215 0001498  71.8114 350.8853  1.00270771    16
INTELSAT 31 (IS-31)     
1 41581C 16035A   22237.00000000 -.00000061  00000-0  00000-0 0  2373
2 41581   0.0160 181.7873 0001452  67.4922 348.8945  1.00269988    10
INTELSAT 31 (IS-31) [PM]
1 41581C 16035A   22237.30339120 -.00000061  00000-0  00000-0 0  2374
2 41581   0.0103 167.8523 0001542  45.4463 134.3987  1.00273731    15
INTELSAT 36 (IS-36)     
1 41747C 16053A   22234.00000000  .00000066  00000-0  00000-0 0  2345
2 41747   0.0076  51.9319 0002765 304.8826  41.9669  1.00272108    14
INTELSAT 36 (IS-36) [PM]
1 41747C 16053A   22236.33528935 -.00003440  00000-0  00000-0 0  2367
2 41747   0.0104  49.5780 0002787 292.8422 179.3696  1.00272569    10
INTELSAT 36 (IS-36)     
1 41747C 16053A   22237.00000000  .00000065  00000-0  00000-0 0  2370
2 41747   0.0045  82.1214 0002832 272.7719  46.8492  1.00270538    12
